STARLINK-36330          
1 67737U 26026S   26068.50002314 -.01590611  00000+0 -31129-1 0  9994
2 67737  97.2843 123.0961 0001643  75.0537  18.1754 15.50382487  5282
STARLINK-36327          
1 67738U 26026T   26068.50002314 -.01888898  00000+0 -37181-1 0  9996
2 67738  97.2839 123.1035 0001717  65.1665  43.5297 15.50798553  5284
STARLINK-36329          
1 67739U 26026U   26068.50002314 -.01807419  00000+0 -34154-1 0  9994
2 67739  97.2848 123.1391 0001902  74.9829 107.9358 15.51775539  5289
STARLINK-36737          
1 67740U 26026V   26068.50002314 -.02025433  00000+0 -39142-1 0  9997
2 67740  97.2838 123.1083 0001952  69.7327  51.6624 15.50984158  5287
STARLINK-36740          
1 67741U 26026W   26068.50002314  .00079894  00000+0  14575-2 0  9998
2 67741  97.2950 123.0739 0001623  88.1856 308.4001 15.49154646  5288
STARLINK-36693          
1 67742U 26026X   26068.50002314  .00165611  00000+0  29919-2 0  9990
2 67742  97.2846 123.0736 0000764 101.3506 290.9719 15.49104561  5423
STARLINK-36717          
1 67743U 26026Y   26068.50002314  .00158218  00000+0  28648-2 0  9994
2 67743  97.2842 123.1035 0001451  95.9004   9.0359 15.49067454  5426
STARLINK-36692          
1 67744U 26026Z   26068.50002314  .00147126  00000+0  26663-2 0  9996
2 67744  97.2844 123.0851 0000995  96.3811 327.6116 15.49085229  5281
2026-027A               
1 67746U 26027A   26068.50566330  .00010629  00000+0  52953-3 0  9991
2 67746  97.4901 197.5204 0010172 195.2240 164.8689 15.17706265  3830
2026-027B               
1 67747U 26027B   26068.50398670  .00010673  00000+0  53015-3 0  9991
2 67747  97.4897 197.5207 0010279 197.6481 162.4397 15.17806646  3833
2026-027C               
1 67748U 26027C   26068.50256548  .00007794  00000+0  38810-3 0  9995
2 67748  97.4909 197.5266 0010646 199.8467 160.2354 15.17812375  3834
2026-027D               
1 67749U 26027D   26068.49872137  .00012355  00000+0  60671-3 0  9991
2 67749  97.4904 197.5303 0010252 205.2205 154.8530 15.18168468  3784
