CCSDS_OMM_VERS = 2.0
CREATION_DATE  = 
ORIGINATOR     = 

OBJECT_NAME    = STARLINK-36330
OBJECT_ID      = 2026-026S
CENTER_NAME    = EARTH
REF_FRAME      = TEME
TIME_SYSTEM    = UTC
MEAN_ELEMENT_THEORY = SGP/SGP4

EPOCH          = 2026-03-09T12:00:01.999296
MEAN_MOTION    = 15.50382487
ECCENTRICITY   = .0001643
INCLINATION    = 97.2843
RA_OF_ASC_NODE = 123.0961
ARG_OF_PERICENTER = 75.0537
MEAN_ANOMALY   = 18.1754

EPHEMERIS_TYPE = 0
CLASSIFICATION_TYPE = U
NORAD_CAT_ID   = 67737
ELEMENT_SET_NO = 999
REV_AT_EPOCH   = 528
BSTAR          = -.31129E-1
MEAN_MOTION_DOT = -.1590611E-1
MEAN_MOTION_DDOT = 0

CCSDS_OMM_VERS = 2.0
CREATION_DATE  = 
ORIGINATOR     = 

OBJECT_NAME    = STARLINK-36327
OBJECT_ID      = 2026-026T
CENTER_NAME    = EARTH
REF_FRAME      = TEME
TIME_SYSTEM    = UTC
MEAN_ELEMENT_THEORY = SGP/SGP4

EPOCH          = 2026-03-09T12:00:01.999296
MEAN_MOTION    = 15.50798553
ECCENTRICITY   = .0001717
INCLINATION    = 97.2839
RA_OF_ASC_NODE = 123.1035
ARG_OF_PERICENTER = 65.1665
MEAN_ANOMALY   = 43.5297

EPHEMERIS_TYPE = 0
CLASSIFICATION_TYPE = U
NORAD_CAT_ID   = 67738
ELEMENT_SET_NO = 999
REV_AT_EPOCH   = 528
BSTAR          = -.37181E-1
MEAN_MOTION_DOT = -.1888898E-1
MEAN_MOTION_DDOT = 0

CCSDS_OMM_VERS = 2.0
CREATION_DATE  = 
ORIGINATOR     = 

OBJECT_NAME    = STARLINK-36329
OBJECT_ID      = 2026-026U
CENTER_NAME    = EARTH
REF_FRAME      = TEME
TIME_SYSTEM    = UTC
MEAN_ELEMENT_THEORY = SGP/SGP4

EPOCH          = 2026-03-09T12:00:01.999296
MEAN_MOTION    = 15.51775539
ECCENTRICITY   = .0001902
INCLINATION    = 97.2848
RA_OF_ASC_NODE = 123.1391
ARG_OF_PERICENTER = 74.9829
MEAN_ANOMALY   = 107.9358

EPHEMERIS_TYPE = 0
CLASSIFICATION_TYPE = U
NORAD_CAT_ID   = 67739
ELEMENT_SET_NO = 999
REV_AT_EPOCH   = 528
BSTAR          = -.34154E-1
MEAN_MOTION_DOT = -.1807419E-1
MEAN_MOTION_DDOT = 0

CCSDS_OMM_VERS = 2.0
CREATION_DATE  = 
ORIGINATOR     = 

OBJECT_NAME    = STARLINK-36737
OBJECT_ID      = 2026-026V
CENTER_NAME    = EARTH
REF_FRAME      = TEME
TIME_SYSTEM    = UTC
MEAN_ELEMENT_THEORY = SGP/SGP4

EPOCH          = 2026-03-09T12:00:01.999296
MEAN_MOTION    = 15.50984158
ECCENTRICITY   = .0001952
INCLINATION    = 97.2838
RA_OF_ASC_NODE = 123.1083
ARG_OF_PERICENTER = 69.7327
MEAN_ANOMALY   = 51.6624

EPHEMERIS_TYPE = 0
CLASSIFICATION_TYPE = U
NORAD_CAT_ID   = 67740
ELEMENT_SET_NO = 999
REV_AT_EPOCH   = 528
BSTAR          = -.39142E-1
MEAN_MOTION_DOT = -.2025433E-1
MEAN_MOTION_DDOT = 0

CCSDS_OMM_VERS = 2.0
CREATION_DATE  = 
ORIGINATOR     = 

OBJECT_NAME    = STARLINK-36740
OBJECT_ID      = 2026-026W
CENTER_NAME    = EARTH
REF_FRAME      = TEME
TIME_SYSTEM    = UTC
MEAN_ELEMENT_THEORY = SGP/SGP4

EPOCH          = 2026-03-09T12:00:01.999296
MEAN_MOTION    = 15.49154646
ECCENTRICITY   = .0001623
INCLINATION    = 97.2950
RA_OF_ASC_NODE = 123.0739
ARG_OF_PERICENTER = 88.1856
MEAN_ANOMALY   = 308.4001

EPHEMERIS_TYPE = 0
CLASSIFICATION_TYPE = U
NORAD_CAT_ID   = 67741
ELEMENT_SET_NO = 999
REV_AT_EPOCH   = 528
BSTAR          = .14575E-2
MEAN_MOTION_DOT = .79894E-3
MEAN_MOTION_DDOT = 0

CCSDS_OMM_VERS = 2.0
CREATION_DATE  = 
ORIGINATOR     = 

OBJECT_NAME    = STARLINK-36693
OBJECT_ID      = 2026-026X
CENTER_NAME    = EARTH
REF_FRAME      = TEME
TIME_SYSTEM    = UTC
MEAN_ELEMENT_THEORY = SGP/SGP4

EPOCH          = 2026-03-09T12:00:01.999296
MEAN_MOTION    = 15.49104561
ECCENTRICITY   = .0000764
INCLINATION    = 97.2846
RA_OF_ASC_NODE = 123.0736
ARG_OF_PERICENTER = 101.3506
MEAN_ANOMALY   = 290.9719

EPHEMERIS_TYPE = 0
CLASSIFICATION_TYPE = U
NORAD_CAT_ID   = 67742
ELEMENT_SET_NO = 999
REV_AT_EPOCH   = 542
BSTAR          = .29919E-2
MEAN_MOTION_DOT = .165611E-2
MEAN_MOTION_DDOT = 0

CCSDS_OMM_VERS = 2.0
CREATION_DATE  = 
ORIGINATOR     = 

OBJECT_NAME    = STARLINK-36717
OBJECT_ID      = 2026-026Y
CENTER_NAME    = EARTH
REF_FRAME      = TEME
TIME_SYSTEM    = UTC
MEAN_ELEMENT_THEORY = SGP/SGP4

EPOCH          = 2026-03-09T12:00:01.999296
MEAN_MOTION    = 15.49067454
ECCENTRICITY   = .0001451
INCLINATION    = 97.2842
RA_OF_ASC_NODE = 123.1035
ARG_OF_PERICENTER = 95.9004
MEAN_ANOMALY   = 9.0359

EPHEMERIS_TYPE = 0
CLASSIFICATION_TYPE = U
NORAD_CAT_ID   = 67743
ELEMENT_SET_NO = 999
REV_AT_EPOCH   = 542
BSTAR          = .28648E-2
MEAN_MOTION_DOT = .158218E-2
MEAN_MOTION_DDOT = 0

CCSDS_OMM_VERS = 2.0
CREATION_DATE  = 
ORIGINATOR     = 

OBJECT_NAME    = STARLINK-36692
OBJECT_ID      = 2026-026Z
CENTER_NAME    = EARTH
REF_FRAME      = TEME
TIME_SYSTEM    = UTC
MEAN_ELEMENT_THEORY = SGP/SGP4

EPOCH          = 2026-03-09T12:00:01.999296
MEAN_MOTION    = 15.49085229
ECCENTRICITY   = .0000995
INCLINATION    = 97.2844
RA_OF_ASC_NODE = 123.0851
ARG_OF_PERICENTER = 96.3811
MEAN_ANOMALY   = 327.6116

EPHEMERIS_TYPE = 0
CLASSIFICATION_TYPE = U
NORAD_CAT_ID   = 67744
ELEMENT_SET_NO = 999
REV_AT_EPOCH   = 528
BSTAR          = .26663E-2
MEAN_MOTION_DOT = .147126E-2
MEAN_MOTION_DDOT = 0

CCSDS_OMM_VERS = 2.0
CREATION_DATE  = 
ORIGINATOR     = 

OBJECT_NAME    = 2026-027A
OBJECT_ID      = 2026-027A
CENTER_NAME    = EARTH
REF_FRAME      = TEME
TIME_SYSTEM    = UTC
MEAN_ELEMENT_THEORY = SGP/SGP4

EPOCH          = 2026-03-09T12:08:09.309120
MEAN_MOTION    = 15.17706265
ECCENTRICITY   = .0010172
INCLINATION    = 97.4901
RA_OF_ASC_NODE = 197.5204
ARG_OF_PERICENTER = 195.2240
MEAN_ANOMALY   = 164.8689

EPHEMERIS_TYPE = 0
CLASSIFICATION_TYPE = U
NORAD_CAT_ID   = 67746
ELEMENT_SET_NO = 999
REV_AT_EPOCH   = 383
BSTAR          = .52953E-3
MEAN_MOTION_DOT = .10629E-3
MEAN_MOTION_DDOT = 0

CCSDS_OMM_VERS = 2.0
CREATION_DATE  = 
ORIGINATOR     = 

OBJECT_NAME    = 2026-027B
OBJECT_ID      = 2026-027B
CENTER_NAME    = EARTH
REF_FRAME      = TEME
TIME_SYSTEM    = UTC
MEAN_ELEMENT_THEORY = SGP/SGP4

EPOCH          = 2026-03-09T12:05:44.450880
MEAN_MOTION    = 15.17806646
ECCENTRICITY   = .0010279
INCLINATION    = 97.4897
RA_OF_ASC_NODE = 197.5207
ARG_OF_PERICENTER = 197.6481
MEAN_ANOMALY   = 162.4397

EPHEMERIS_TYPE = 0
CLASSIFICATION_TYPE = U
NORAD_CAT_ID   = 67747
ELEMENT_SET_NO = 999
REV_AT_EPOCH   = 383
BSTAR          = .53015E-3
MEAN_MOTION_DOT = .10673E-3
MEAN_MOTION_DDOT = 0

CCSDS_OMM_VERS = 2.0
CREATION_DATE  = 
ORIGINATOR     = 

OBJECT_NAME    = 2026-027C
OBJECT_ID      = 2026-027C
CENTER_NAME    = EARTH
REF_FRAME      = TEME
TIME_SYSTEM    = UTC
MEAN_ELEMENT_THEORY = SGP/SGP4

EPOCH          = 2026-03-09T12:03:41.657472
MEAN_MOTION    = 15.17812375
ECCENTRICITY   = .0010646
INCLINATION    = 97.4909
RA_OF_ASC_NODE = 197.5266
ARG_OF_PERICENTER = 199.8467
MEAN_ANOMALY   = 160.2354

EPHEMERIS_TYPE = 0
CLASSIFICATION_TYPE = U
NORAD_CAT_ID   = 67748
ELEMENT_SET_NO = 999
REV_AT_EPOCH   = 383
BSTAR          = .3881E-3
MEAN_MOTION_DOT = .7794E-4
MEAN_MOTION_DDOT = 0

CCSDS_OMM_VERS = 2.0
CREATION_DATE  = 
ORIGINATOR     = 

OBJECT_NAME    = 2026-027D
OBJECT_ID      = 2026-027D
CENTER_NAME    = EARTH
REF_FRAME      = TEME
TIME_SYSTEM    = UTC
MEAN_ELEMENT_THEORY = SGP/SGP4

EPOCH          = 2026-03-09T11:58:09.526368
MEAN_MOTION    = 15.18168468
ECCENTRICITY   = .0010252
INCLINATION    = 97.4904
RA_OF_ASC_NODE = 197.5303
ARG_OF_PERICENTER = 205.2205
MEAN_ANOMALY   = 154.8530

EPHEMERIS_TYPE = 0
CLASSIFICATION_TYPE = U
NORAD_CAT_ID   = 67749
ELEMENT_SET_NO = 999
REV_AT_EPOCH   = 378
BSTAR          = .60671E-3
MEAN_MOTION_DOT = .12355E-3
MEAN_MOTION_DDOT = 0

